{
  "type": "FeatureCollection",
  "features": [
    {
      "type": "Feature",
      "properties": {
        "norad_id": 67032,
        "name": "STARLINK-36131",
        "group": "last-30-days",
        "lat": 42.48229008602334,
        "lon": -131.47066450510255,
        "alt_km": 310.1852492091148,
        "timestamp": "2025-12-21T14:40:46.636981+00:00",
        "meta_object_name": "STARLINK-36131",
        "meta_object_id": "2025-294C",
        "meta_epoch": "2025-12-21T06:00:00.999648",
        "meta_mean_motion": 15.85358877,
        "meta_eccentricity": 0.00028479,
        "meta_inclination": 42.9996,
        "meta_ra_of_asc_node": 130.1073,
        "meta_arg_of_pericenter": 281.3999,
        "meta_mean_anomaly": 269.8383,
        "meta_ephemeris_type": 0,
        "meta_classification_type": "U",
        "meta_norad_cat_id": 67032,
        "meta_element_set_no": 999,
        "meta_rev_at_epoch": 148,
        "meta_bstar": 0.00044596891,
        "meta_mean_motion_dot": 0.00110961,
        "meta_mean_motion_ddot": 0,
        "tle_line1": "1 67032U 25294C   25355.25001157  .00110961  00000+0  44597-3 0  9990",
        "tle_line2": "2 67032  42.9996 130.1073 0002847 281.3999 269.8383 15.85358877  1485"
      },
      "geometry": {
        "type": "Point",
        "coordinates": [
          -131.47066450510255,
          42.48229008602334
        ]
      }
    },
    {
      "type": "Feature",
      "properties": {
        "norad_id": 67033,
        "name": "STARLINK-36137",
        "group": "last-30-days",
        "lat": 42.71524080476725,
        "lon": -134.34669936911192,
        "alt_km": 309.60354545903647,
        "timestamp": "2025-12-21T14:40:46.636991+00:00",
        "meta_object_name": "STARLINK-36137",
        "meta_object_id": "2025-294D",
        "meta_epoch": "2025-12-21T06:00:00.999648",
        "meta_mean_motion": 15.85346474,
        "meta_eccentricity": 0.00019391,
        "meta_inclination": 42.9997,
        "meta_ra_of_asc_node": 130.113,
        "meta_arg_of_pericenter": 276.7195,
        "meta_mean_anomaly": 272.4097,
        "meta_ephemeris_type": 0,
        "meta_classification_type": "U",
        "meta_norad_cat_id": 67033,
        "meta_element_set_no": 999,
        "meta_rev_at_epoch": 148,
        "meta_bstar": 0.00041457783,
        "meta_mean_motion_dot": 0.00102941,
        "meta_mean_motion_ddot": 0,
        "tle_line1": "1 67033U 25294D   25355.25001157  .00102941  00000+0  41458-3 0  9993",
        "tle_line2": "2 67033  42.9997 130.1130 0001939 276.7195 272.4097 15.85346474  1480"
      },
      "geometry": {
        "type": "Point",
        "coordinates": [
          -134.34669936911192,
          42.71524080476725
        ]
      }
    },
    {
      "type": "Feature",
      "properties": {
        "norad_id": 67034,
        "name": "STARLINK-36140",
        "group": "last-30-days",
        "lat": 42.208857524722575,
        "lon": -128.87909761963266,
        "alt_km": 311.8617611145619,
        "timestamp": "2025-12-21T14:40:46.637001+00:00",
        "meta_object_name": "STARLINK-36140",
        "meta_object_id": "2025-294E",
        "meta_epoch": "2025-12-21T06:00:00.999648",
        "meta_mean_motion": 15.85709833,
        "meta_eccentricity": 0.00015198,
        "meta_inclination": 42.9997,
        "meta_ra_of_asc_node": 130.1021,
        "meta_arg_of_pericenter": 267.5336,
        "meta_mean_anomaly": 285.9408,
        "meta_ephemeris_type": 0,
        "meta_classification_type": "U",
        "meta_norad_cat_id": 67034,
        "meta_element_set_no": 999,
        "meta_rev_at_epoch": 148,
        "meta_bstar": -0.006026354,
        "meta_mean_motion_dot": -0.01330547,
        "meta_mean_motion_ddot": 0,
        "tle_line1": "1 67034U 25294E   25355.25001157 -.01330547  00000+0 -60264-2 0  9997",
        "tle_line2": "2 67034  42.9997 130.1021 0001519 267.5336 285.9408 15.85709833  1486"
      },
      "geometry": {
        "type": "Point",
        "coordinates": [
          -128.87909761963266,
          42.208857524722575
        ]
      }
    },
    {
      "type": "Feature",
      "properties": {
        "norad_id": 67035,
        "name": "STARLINK-36085",
        "group": "last-30-days",
        "lat": 41.31465887807443,
        "lon": -122.74792133134041,
        "alt_km": 311.81526067928917,
        "timestamp": "2025-12-21T14:40:46.637013+00:00",
        "meta_object_name": "STARLINK-36085",
        "meta_object_id": "2025-294F",
        "meta_epoch": "2025-12-21T06:00:00.999648",
        "meta_mean_motion": 15.85746415,
        "meta_eccentricity": 0.00013767,
        "meta_inclination": 42.9999,
        "meta_ra_of_asc_node": 130.0902,
        "meta_arg_of_pericenter": 265.292,
        "meta_mean_anomaly": 292.8075,
        "meta_ephemeris_type": 0,
        "meta_classification_type": "U",
        "meta_norad_cat_id": 67035,
        "meta_element_set_no": 999,
        "meta_rev_at_epoch": 148,
        "meta_bstar": -0.0061004149,
        "meta_mean_motion_dot": -0.01346885,
        "meta_mean_motion_ddot": 0,
        "tle_line1": "1 67035U 25294F   25355.25001157 -.01346885  00000+0 -61004-2 0  9993",
        "tle_line2": "2 67035  42.9999 130.0902 0001376 265.2920 292.8075 15.85746415  1485"
      },
      "geometry": {
        "type": "Point",
        "coordinates": [
          -122.74792133134041,
          41.31465887807443
        ]
      }
    },
    {
      "type": "Feature",
      "properties": {
        "norad_id": 67036,
        "name": "STARLINK-36125",
        "group": "last-30-days",
        "lat": 41.730993885942524,
        "lon": -125.3084851899614,
        "alt_km": 309.5949647520156,
        "timestamp": "2025-12-21T14:40:46.637023+00:00",
        "meta_object_name": "STARLINK-36125",
        "meta_object_id": "2025-294G",
        "meta_epoch": "2025-12-21T06:00:00.999648",
        "meta_mean_motion": 15.85399758,
        "meta_eccentricity": 0.00019177,
        "meta_inclination": 42.9998,
        "meta_ra_of_asc_node": 130.0961,
        "meta_arg_of_pericenter": 274.0311,
        "meta_mean_anomaly": 281.7988,
        "meta_ephemeris_type": 0,
        "meta_classification_type": "U",
        "meta_norad_cat_id": 67036,
        "meta_element_set_no": 999,
        "meta_rev_at_epoch": 167,
        "meta_bstar": 0.00039700331,
        "meta_mean_motion_dot": 0.00098761,
        "meta_mean_motion_ddot": 0,
        "tle_line1": "1 67036U 25294G   25355.25001157  .00098761  00000+0  39700-3 0  9997",
        "tle_line2": "2 67036  42.9998 130.0961 0001917 274.0311 281.7988 15.85399758  1678"
      },
      "geometry": {
        "type": "Point",
        "coordinates": [
          -125.3084851899614,
          41.730993885942524
        ]
      }
    },
    {
      "type": "Feature",
      "properties": {
        "norad_id": 67037,
        "name": "STARLINK-35732",
        "group": "last-30-days",
        "lat": 40.593700106028834,
        "lon": -119.01484577581196,
        "alt_km": 309.7622317050018,
        "timestamp": "2025-12-21T14:40:46.637033+00:00",
        "meta_object_name": "STARLINK-35732",
        "meta_object_id": "2025-294H",
        "meta_epoch": "2025-12-21T06:00:00.999648",
        "meta_mean_motion": 15.85502548,
        "meta_eccentricity": 0.00021673,
        "meta_inclination": 42.9996,
        "meta_ra_of_asc_node": 130.0841,
        "meta_arg_of_pericenter": 268.4311,
        "meta_mean_anomaly": 292.1781,
        "meta_ephemeris_type": 0,
        "meta_classification_type": "U",
        "meta_norad_cat_id": 67037,
        "meta_element_set_no": 999,
        "meta_rev_at_epoch": 159,
        "meta_bstar": 9.6179791e-05,
        "meta_mean_motion_dot": 0.00023411,
        "meta_mean_motion_ddot": 0,
        "tle_line1": "1 67037U 25294H   25355.25001157  .00023411  00000+0  96180-4 0  9994",
        "tle_line2": "2 67037  42.9996 130.0841 0002167 268.4311 292.1781 15.85502548  1590"
      },
      "geometry": {
        "type": "Point",
        "coordinates": [
          -119.01484577581196,
          40.593700106028834
        ]
      }
    },
    {
      "type": "Feature",
      "properties": {
        "norad_id": 67038,
        "name": "STARLINK-35775",
        "group": "last-30-days",
        "lat": 39.98659405136508,
        "lon": -116.31659851686123,
        "alt_km": 309.7997881660194,
        "timestamp": "2025-12-21T14:40:46.637045+00:00",
        "meta_object_name": "STARLINK-35775",
        "meta_object_id": "2025-294J",
        "meta_epoch": "2025-12-21T06:00:00.999648",
        "meta_mean_motion": 15.85524988,
        "meta_eccentricity": 0.00021948,
        "meta_inclination": 42.9999,
        "meta_ra_of_asc_node": 130.0786,
        "meta_arg_of_pericenter": 268.9464,
        "meta_mean_anomaly": 293.7814,
        "meta_ephemeris_type": 0,
        "meta_classification_type": "U",
        "meta_norad_cat_id": 67038,
        "meta_element_set_no": 999,
        "meta_rev_at_epoch": 159,
        "meta_bstar": 9.4418685e-05,
        "meta_mean_motion_dot": 0.00022997,
        "meta_mean_motion_ddot": 0,
        "tle_line1": "1 67038U 25294J   25355.25001157  .00022997  00000+0  94419-4 0  9996",
        "tle_line2": "2 67038  42.9999 130.0786 0002194 268.9464 293.7814 15.85524988  1592"
      },
      "geometry": {
        "type": "Point",
        "coordinates": [
          -116.31659851686123,
          39.98659405136508
        ]
      }
    }
  ]
}